NORAD_CAT_ID,OBJECT_NAME,OBJECT_TYPE,EPOCH,MEAN_MOTION,ECCENTRICITY,INCLINATION,RA_OF_ASC_NODE,ARG_OF_PERICENTER,MEAN_ANOMALY,BSTAR,MEAN_MOTION_DOT,MEAN_MOTION_DDOT,TLE_LINE0,TLE_LINE1,TLE_LINE2,SEMIMAJOR_AXIS,PERIOD,APOGEE,PERIGEE,DECAYED
51881.0,STARLINK-3504,PAYLOAD,2024-04-21 12:47:16,15.08851651,0.000206,53.2179,203.8855,100.5974,259.525,0.00049452,7.593e-05,0.0,0 STARLINK-3504,1 51881U 22022AF  24112.53283008  .00007593  00000-0  49452-3 0  9991,2 51881  53.2179 203.8855 0002060 100.5974 259.5250 15.08851651119567,6917.845,95.437,541.135,538.285,0.0
51881.0,STARLINK-3504,PAYLOAD,2024-04-22 11:02:40,15.08844891,0.0002105,53.2179,199.7177,120.0309,240.0892,0.00039121,5.944e-05,0.0,0 STARLINK-3504,1 51881U 22022AF  24113.46019170  .00005944  00000-0  39121-3 0  9991,2 51881  53.2179 199.7177 0002105 120.0309 240.0892 15.08844891119707,6917.865,95.437,541.187,538.274,0.0
51881.0,STARLINK-3504,PAYLOAD,2024-04-23 12:28:51,15.08829531,0.0001602,53.2171,194.9632,103.4956,256.6215,-0.000173,-3.039e-05,0.0,0 STARLINK-3504,1 51881U 22022AF  24114.52004296 -.00003039  00000-0 -17300-3 0  9992,2 51881  53.2171 194.9632 0001602 103.4956 256.6215 15.08829531119869,6917.912,95.438,540.886,538.669,0.0
51881.0,STARLINK-3504,PAYLOAD,2024-04-24 09:08:51,15.08849079,0.000137,53.2166,191.0997,73.3215,286.7927,0.00023085,3.389e-05,0.0,0 STARLINK-3504,1 51881U 22022AF  24115.38115287  .00003389  00000-0  23085-3 0  9993,2 51881  53.2166 191.0997 0001370  73.3215 286.7927 15.08849079119997,6917.853,95.437,540.665,538.77,0.0
51881.0,STARLINK-3504,PAYLOAD,2024-04-25 12:10:24,15.08853387,0.000107,53.2151,186.0466,56.1836,303.9258,0.00035049,5.297e-05,0.0,0 STARLINK-3504,1 51881U 22022AF  24116.50722363  .00005297  00000-0  35049-3 0  9990,2 51881  53.2151 186.0466 0001070  56.1836 303.9258 15.08853387120168,6917.839,95.437,540.445,538.964,0.0
51881.0,STARLINK-3504,PAYLOAD,2024-04-26 04:04:16,15.08832422,0.0001119,53.216,183.0702,102.0066,258.1052,-0.00026751,-4.542e-05,0.0,0 STARLINK-3504,1 51881U 22022AF  24117.16963252 -.00004542  00000-0 -26751-3 0  9991,2 51881  53.2160 183.0702 0001119 102.0066 258.1052 15.08832422120269,6917.904,95.438,540.543,538.994,0.0
51881.0,STARLINK-3504,PAYLOAD,2024-04-26 12:01:11,15.08836402,0.0001372,53.2157,181.5845,75.2604,284.854,-0.00016319,-2.884e-05,0.0,0 STARLINK-3504,1 51881U 22022AF  24117.50083321 -.00002884  00000-0 -16319-3 0  9995,2 51881  53.2157 181.5845 0001372  75.2604 284.8540 15.08836402120312,6917.891,95.438,540.706,538.807,0.0
51881.0,STARLINK-3504,PAYLOAD,2024-04-27 03:55:02,15.0884978,0.0001406,53.2165,178.6103,80.2154,279.8997,0.00019781,2.862e-05,0.0,0 STARLINK-3504,1 51881U 22022AF  24118.16322685  .00002862  00000-0  19781-3 0  9997,2 51881  53.2165 178.6103 0001406  80.2154 279.8997 15.08849780120413,6917.85,95.437,540.688,538.743,0.0
51881.0,STARLINK-3504,PAYLOAD,2024-04-27 10:16:35,15.08866316,0.0001376,53.2147,177.4215,77.6242,282.4904,0.00086428,0.00013504,0.0,0 STARLINK-3504,1 51881U 22022AF  24118.42818332  .00013504  00000-0  86428-3 0  9992,2 51881  53.2147 177.4215 0001376  77.6242 282.4904 15.08866316120454,6917.8,95.436,540.617,538.713,0.0
51881.0,STARLINK-3504,PAYLOAD,2024-04-27 21:24:17,15.08852293,0.0001722,53.2157,175.3398,79.5968,280.5218,0.00042751,6.525e-05,0.0,0 STARLINK-3504,1 51881U 22022AF  24118.89186567  .00006525  00000-0  42751-3 0  9997,2 51881  53.2157 175.3398 0001722  79.5968 280.5218 15.08852293120529,6917.843,95.437,540.899,538.517,0.0
51881.0,STARLINK-3504,PAYLOAD,2024-04-28 10:07:22,15.08827577,0.0001462,53.2148,172.961,91.6575,268.4585,-7.3793e-05,-1.462e-05,0.0,0 STARLINK-3504,1 51881U 22022AF  24119.42179165 -.00001462  00000-0 -73793-4 0  9991,2 51881  53.2148 172.9610 0001462  91.6575 268.4585 15.08827577120607,6917.918,95.438,540.795,538.772,0.0
51881.0,STARLINK-3504,PAYLOAD,2024-04-29 09:58:12,15.08832669,0.000138,53.2146,168.5003,88.7271,271.3879,0.0014027,0.00022102,0.0,0 STARLINK-3504,1 51881U 22022AF  24120.41542296  .00022102  00000-0  14027-2 0  9996,2 51881  53.2146 168.5003 0001380  88.7271 271.3879 15.08832669120754,6917.903,95.438,540.722,538.813,0.0
51881.0,STARLINK-3504,PAYLOAD,2024-04-30 09:48:58,15.0887206,0.0001382,53.2151,164.0398,90.2976,269.8175,0.00085938,0.00013427,0.0,0 STARLINK-3504,1 51881U 22022AF  24121.40900751  .00013427  00000-0  85938-3 0  9990,2 51881  53.2151 164.0398 0001382  90.2976 269.8175 15.08872060120907,6917.782,95.436,540.603,538.691,0.0
51881.0,STARLINK-3504,PAYLOAD,2024-04-30 19:21:16,15.08860674,0.0001486,53.2147,162.2561,87.4936,272.6226,0.00027589,4.108e-05,0.0,0 STARLINK-3504,1 51881U 22022AF  24121.80644248  .00004108  00000-0  27589-3 0  9994,2 51881  53.2147 162.2561 0001486  87.4936 272.6226 15.08860674120966,6917.817,95.436,540.71,538.654,0.0
51881.0,STARLINK-3504,PAYLOAD,2024-05-01 09:39:44,15.08856417,0.0001445,53.2155,159.5806,93.0082,267.1076,8.8114e-05,1.115e-05,0.0,0 STARLINK-3504,1 51881U 22022AF  24122.40259939  .00001115  00000-0  88114-4 0  9997,2 51881  53.2155 159.5806 0001445  93.0082 267.1076 15.08856417121059,6917.83,95.437,540.695,538.696,0.0
51881.0,STARLINK-3504,PAYLOAD,2024-05-01 19:12:03,15.08853074,0.0001472,53.2159,157.797,94.1816,265.9345,1.5312e-05,-4.4e-07,0.0,0 STARLINK-3504,1 51881U 22022AF  24122.80003720 -.00000044  00000-0  15312-4 0  9997,2 51881  53.2159 157.7970 0001472  94.1816 265.9345 15.08853074121110,6917.84,95.437,540.724,538.687,0.0
51881.0,STARLINK-3504,PAYLOAD,2024-05-02 03:08:58,15.08850296,0.0001603,53.217,156.3112,98.3077,261.8097,-6.9076e-05,-1.388e-05,0.0,0 STARLINK-3504,1 51881U 22022AF  24123.13123777 -.00001388  00000-0 -69076-4 0  9998,2 51881  53.2170 156.3112 0001603  98.3077 261.8097 15.08850296121164,6917.849,95.437,540.823,538.605,0.0
51881.0,STARLINK-3504,PAYLOAD,2024-05-02 11:05:54,15.0884845,0.0001525,53.2166,154.8231,94.2667,265.8499,-1.862e-05,-5.84e-06,0.0,0 STARLINK-3504,1 51881U 22022AF  24123.46244126 -.00000584  00000-0 -18620-4 0  9992,2 51881  53.2166 154.8231 0001525  94.2667 265.8499 15.08848450121212,6917.855,95.437,540.775,538.665,0.0
51881.0,STARLINK-3504,PAYLOAD,2024-05-03 10:56:41,15.08851014,0.0001499,53.2162,150.3599,88.5499,271.5665,6.727e-05,7.83e-06,0.0,0 STARLINK-3504,1 51881U 22022AF  24124.45603182  .00000783  00000-0  67270-4 0  9997,2 51881  53.2162 150.3599 0001499  88.5499 271.5665 15.08851014121360,6917.847,95.437,540.749,538.675,0.0
51881.0,STARLINK-3504,PAYLOAD,2024-05-03 18:53:37,15.08838713,0.0001629,53.2175,148.873,82.3574,277.7603,6.967e-06,-1.77e-06,0.0,0 STARLINK-3504,1 51881U 22022AF  24124.78724113 -.00000177  00000-0  69670-5 0  9996,2 51881  53.2175 148.8730 0001629  82.3574 277.7603 15.08838713121411,6917.884,95.438,540.876,538.622,0.0
51881.0,STARLINK-3504,PAYLOAD,2024-05-04 10:47:30,15.0882801,0.0001445,53.216,145.8988,85.2686,274.8471,-5.6913e-05,-1.193e-05,0.0,0 STARLINK-3504,1 51881U 22022AF  24125.44965280 -.00001193  00000-0 -56913-4 0  9997,2 51881  53.2160 145.8988 0001445  85.2686 274.8471 15.08828010121510,6917.917,95.438,540.782,538.782,0.0
51881.0,STARLINK-3504,PAYLOAD,2024-05-05 10:38:16,15.08845243,0.0001521,53.2163,141.4383,84.2669,275.8496,-0.00014,-2.516e-05,0.0,0 STARLINK-3504,1 51881U 22022AF  24126.44324985 -.00002516  00000-0 -14000-3 0  9999,2 51881  53.2163 141.4383 0001521  84.2669 275.8496 15.08845243121660,6917.864,95.437,540.782,538.677,0.0
51881.0,STARLINK-3504,PAYLOAD,2024-05-05 18:35:12,15.08834159,0.0001453,53.2164,139.9517,83.1163,276.9995,6.0917e-05,6.82e-06,0.0,0 STARLINK-3504,1 51881U 22022AF  24126.77445246  .00000682  00000-0  60917-4 0  9998,2 51881  53.2164 139.9517 0001453  83.1163 276.9995 15.08834159121719,6917.898,95.438,540.768,538.758,0.0
51881.0,STARLINK-3504,PAYLOAD,2024-05-06 07:18:17,15.08835006,0.0001423,53.2159,137.5733,78.8625,281.2527,0.00019051,2.745e-05,0.0,0 STARLINK-3504,1 51881U 22022AF  24127.30437234  .00002745  00000-0  19051-3 0  9990,2 51881  53.2159 137.5733 0001423  78.8625 281.2527 15.08835006121798,6917.896,95.438,540.745,538.776,0.0
51881.0,STARLINK-3504,PAYLOAD,2024-05-07 03:58:17,15.08849235,0.0001452,53.2161,133.7077,78.1628,281.9527,0.00021748,3.176e-05,0.0,0 STARLINK-3504,1 51881U 22022AF  24128.16548490  .00003176  00000-0  21748-3 0  9997,2 51881  53.2161 133.7077 0001452  78.1628 281.9527 15.08849235121929,6917.852,95.437,540.722,538.713,0.0
51881.0,STARLINK-3504,PAYLOAD,2024-05-07 07:09:03,15.08853136,0.0001446,53.2161,133.113,78.2028,281.9126,0.00025662,3.8e-05,0.0,0 STARLINK-3504,1 51881U 22022AF  24128.29796256  .00003800  00000-0  25662-3 0  9999,2 51881  53.2161 133.1130 0001446  78.2028 281.9126 15.08853136121943,6917.84,95.437,540.706,538.705,0.0
51881.0,STARLINK-3504,PAYLOAD,2024-05-08 05:24:27,15.08848832,0.00015,53.2148,128.9498,77.1183,282.9977,7.9872e-05,9.84e-06,0.0,0 STARLINK-3504,1 51881U 22022AF  24129.22532346  .00000984  00000-0  79872-4 0  9994,2 51881  53.2148 128.9498 0001500  77.1183 282.9977 15.08848832122086,6917.853,95.437,540.756,538.681,0.0
51881.0,STARLINK-3504,PAYLOAD,2024-05-08 06:59:50,15.08849892,0.0001491,53.2148,128.6522,77.385,282.7309,9.3232e-05,1.196e-05,0.0,0 STARLINK-3504,1 51881U 22022AF  24129.29156244  .00001196  00000-0  93232-4 0  9992,2 51881  53.2148 128.6522 0001491  77.3850 282.7309 15.08849892122098,6917.85,95.437,540.747,538.684,0.0
51881.0,STARLINK-3504,PAYLOAD,2024-05-09 05:15:14,15.08847169,0.000149,53.2162,124.4901,79.7896,280.3264,-7.5213e-06,-4.08e-06,0.0,0 STARLINK-3504,1 51881U 22022AF  24130.21892266 -.00000408  00000-0 -75213-5 0  9994,2 51881  53.2162 124.4901 0001490  79.7896 280.3264 15.08847169122239,6917.858,95.437,540.754,538.693,0.0
51881.0,STARLINK-3504,PAYLOAD,2024-05-09 06:50:37,15.08847899,0.0001477,53.2161,124.1926,79.3945,280.7213,-4.5585e-06,-3.61e-06,0.0,0 STARLINK-3504,1 51881U 22022AF  24130.28516150 -.00000361  00000-0 -45585-5 0  9993,2 51881  53.2161 124.1926 0001477  79.3945 280.7213 15.08847899122247,6917.856,95.437,540.743,538.699,0.0
